ORBCOMM FM05            
1 25117U 97084F   24279.05253011  .00010372  00000+0  30492-2 0  9997
2 25117  45.0134 151.4047 0002369  34.6390 325.4615 14.43895125404648
ORBCOMM FM06            
1 25118U 97084G   24279.02944807  .00010645  00000+0  31205-2 0  9991
2 25118  45.0127 151.5742 0001674  52.5842  87.6348 14.44016177404635
ORBCOMM FM07            
1 25119U 97084H   24279.00380673  .00010135  00000+0  29799-2 0  9994
2 25119  45.0119 152.3392 0002973  20.8934 339.2038 14.43906668404623
ORBCOMM FM03            
1 25158U 98007B   24278.86093508  .00006309  00000+0  23168-2 0  9996
2 25158 107.9697 331.5616 0047116 332.4061  27.4579 14.33014201387444
ORBCOMM FM04            
1 25159U 98007C   24279.10110727  .00006687  00000+0  24446-2 0  9997
2 25159 107.9681 335.0952 0042856 329.2707  30.5924 14.33289292387765
ORBCOMM FM17            
1 25413U 98046A   24278.68682921  .00006659  00000+0  24181-2 0  9990
2 25413  44.9960  22.4707 0001347 310.0886  49.9843 14.33863179366650
ORBCOMM FM18            
1 25414U 98046B   24279.15180608  .00007737  00000+0  26372-2 0  9991
2 25414  44.9927 304.1156 0002276  46.5217 313.5820 14.36876781367712
ORBCOMM FM19            
1 25415U 98046C   24279.07045706  .00009089  00000+0  30997-2 0  9992
2 25415  44.9940 306.1130 0001663  14.0437  11.2021 14.36709357367691
