<?xml version="1.0" encoding="UTF-8"?>
<ndm xmlns:xsi="http://www.w3.org/2001/XMLSchema-instance" xsi:noNamespaceSchemaLocation="https://sanaregistry.org/r/ndmxml_unqualified/ndmxml-2.0.0-master-2.0.xsd">
<omm id="CCSDS_OMM_VERS" version="2.0">
<header><CREATION_DATE/><ORIGINATOR/></header><body><segment><metadata><OBJECT_NAME>ORBCOMM FM05</OBJECT_NAME><OBJECT_ID>1997-084F</OBJECT_ID><CENTER_NAME>EARTH</CENTER_NAME><REF_FRAME>TEME</REF_FRAME><TIME_SYSTEM>UTC</TIME_SYSTEM><MEAN_ELEMENT_THEORY>SGP4</MEAN_ELEMENT_THEORY></metadata><data><meanElements><EPOCH>2024-10-05T01:15:38.601504</EPOCH><MEAN_MOTION>14.43895125</MEAN_MOTION><ECCENTRICITY>.0002369</ECCENTRICITY><INCLINATION>45.0134</INCLINATION><RA_OF_ASC_NODE>151.4047</RA_OF_ASC_NODE><ARG_OF_PERICENTER>34.6390</ARG_OF_PERICENTER><MEAN_ANOMALY>325.4615</MEAN_ANOMALY></meanElements><tleParameters><EPHEMERIS_TYPE>0</EPHEMERIS_TYPE><CLASSIFICATION_TYPE>U</CLASSIFICATION_TYPE><NORAD_CAT_ID>25117</NORAD_CAT_ID><ELEMENT_SET_NO>999</ELEMENT_SET_NO><REV_AT_EPOCH>40464</REV_AT_EPOCH><BSTAR>.30492E-2</BSTAR><MEAN_MOTION_DOT>.10372E-3</MEAN_MOTION_DOT><MEAN_MOTION_DDOT>0</MEAN_MOTION_DDOT></tleParameters></data></segment></body></omm>
<omm id="CCSDS_OMM_VERS" version="2.0">
<header><CREATION_DATE/><ORIGINATOR/></header><body><segment><metadata><OBJECT_NAME>ORBCOMM FM06</OBJECT_NAME><OBJECT_ID>1997-084G</OBJECT_ID><CENTER_NAME>EARTH</CENTER_NAME><REF_FRAME>TEME</REF_FRAME><TIME_SYSTEM>UTC</TIME_SYSTEM><MEAN_ELEMENT_THEORY>SGP4</MEAN_ELEMENT_THEORY></metadata><data><meanElements><EPOCH>2024-10-05T00:42:24.313248</EPOCH><MEAN_MOTION>14.44016177</MEAN_MOTION><ECCENTRICITY>.0001674</ECCENTRICITY><INCLINATION>45.0127</INCLINATION><RA_OF_ASC_NODE>151.5742</RA_OF_ASC_NODE><ARG_OF_PERICENTER>52.5842</ARG_OF_PERICENTER><MEAN_ANOMALY>87.6348</MEAN_ANOMALY></meanElements><tleParameters><EPHEMERIS_TYPE>0</EPHEMERIS_TYPE><CLASSIFICATION_TYPE>U</CLASSIFICATION_TYPE><NORAD_CAT_ID>25118</NORAD_CAT_ID><ELEMENT_SET_NO>999</ELEMENT_SET_NO><REV_AT_EPOCH>40463</REV_AT_EPOCH><BSTAR>.31205E-2</BSTAR><MEAN_MOTION_DOT>.10645E-3</MEAN_MOTION_DOT><MEAN_MOTION_DDOT>0</MEAN_MOTION_DDOT></tleParameters></data></segment></body></omm>
<omm id="CCSDS_OMM_VERS" version="2.0">
<header><CREATION_DATE/><ORIGINATOR/></header><body><segment><metadata><OBJECT_NAME>ORBCOMM FM07</OBJECT_NAME><OBJECT_ID>1997-084H</OBJECT_ID><CENTER_NAME>EARTH</CENTER_NAME><REF_FRAME>TEME</REF_FRAME><TIME_SYSTEM>UTC</TIME_SYSTEM><MEAN_ELEMENT_THEORY>SGP4</MEAN_ELEMENT_THEORY></metadata><data><meanElements><EPOCH>2024-10-05T00:05:28.901472</EPOCH><MEAN_MOTION>14.43906668</MEAN_MOTION><ECCENTRICITY>.0002973</ECCENTRICITY><INCLINATION>45.0119</INCLINATION><RA_OF_ASC_NODE>152.3392</RA_OF_ASC_NODE><ARG_OF_PERICENTER>20.8934</ARG_OF_PERICENTER><MEAN_ANOMALY>339.2038</MEAN_ANOMALY></meanElements><tleParameters><EPHEMERIS_TYPE>0</EPHEMERIS_TYPE><CLASSIFICATION_TYPE>U</CLASSIFICATION_TYPE><NORAD_CAT_ID>25119</NORAD_CAT_ID><ELEMENT_SET_NO>999</ELEMENT_SET_NO><REV_AT_EPOCH>40462</REV_AT_EPOCH><BSTAR>.29799E-2</BSTAR><MEAN_MOTION_DOT>.10135E-3</MEAN_MOTION_DOT><MEAN_MOTION_DDOT>0</MEAN_MOTION_DDOT></tleParameters></data></segment></body></omm>
<omm id="CCSDS_OMM_VERS" version="2.0">
<header><CREATION_DATE/><ORIGINATOR/></header><body><segment><metadata><OBJECT_NAME>ORBCOMM FM03</OBJECT_NAME><OBJECT_ID>1998-007B</OBJECT_ID><CENTER_NAME>EARTH</CENTER_NAME><REF_FRAME>TEME</REF_FRAME><TIME_SYSTEM>UTC</TIME_SYSTEM><MEAN_ELEMENT_THEORY>SGP4</MEAN_ELEMENT_THEORY></metadata><data><meanElements><EPOCH>2024-10-04T20:39:44.790912</EPOCH><MEAN_MOTION>14.33014201</MEAN_MOTION><ECCENTRICITY>.0047116</ECCENTRICITY><INCLINATION>107.9697</INCLINATION><RA_OF_ASC_NODE>331.5616</RA_OF_ASC_NODE><ARG_OF_PERICENTER>332.4061</ARG_OF_PERICENTER><MEAN_ANOMALY>27.4579</MEAN_ANOMALY></meanElements><tleParameters><EPHEMERIS_TYPE>0</EPHEMERIS_TYPE><CLASSIFICATION_TYPE>U</CLASSIFICATION_TYPE><NORAD_CAT_ID>25158</NORAD_CAT_ID><ELEMENT_SET_NO>999</ELEMENT_SET_NO><REV_AT_EPOCH>38744</REV_AT_EPOCH><BSTAR>.23168E-2</BSTAR><MEAN_MOTION_DOT>.6309E-4</MEAN_MOTION_DOT><MEAN_MOTION_DDOT>0</MEAN_MOTION_DDOT></tleParameters></data></segment></body></omm>
<omm id="CCSDS_OMM_VERS" version="2.0">
<header><CREATION_DATE/><ORIGINATOR/></header><body><segment><metadata><OBJECT_NAME>ORBCOMM FM04</OBJECT_NAME><OBJECT_ID>1998-007C</OBJECT_ID><CENTER_NAME>EARTH</CENTER_NAME><REF_FRAME>TEME</REF_FRAME><TIME_SYSTEM>UTC</TIME_SYSTEM><MEAN_ELEMENT_THEORY>SGP4</MEAN_ELEMENT_THEORY></metadata><data><meanElements><EPOCH>2024-10-05T02:25:35.668128</EPOCH><MEAN_MOTION>14.33289292</MEAN_MOTION><ECCENTRICITY>.0042856</ECCENTRICITY><INCLINATION>107.9681</INCLINATION><RA_OF_ASC_NODE>335.0952</RA_OF_ASC_NODE><ARG_OF_PERICENTER>329.2707</ARG_OF_PERICENTER><MEAN_ANOMALY>30.5924</MEAN_ANOMALY></meanElements><tleParameters><EPHEMERIS_TYPE>0</EPHEMERIS_TYPE><CLASSIFICATION_TYPE>U</CLASSIFICATION_TYPE><NORAD_CAT_ID>25159</NORAD_CAT_ID><ELEMENT_SET_NO>999</ELEMENT_SET_NO><REV_AT_EPOCH>38776</REV_AT_EPOCH><BSTAR>.24446E-2</BSTAR><MEAN_MOTION_DOT>.6687E-4</MEAN_MOTION_DOT><MEAN_MOTION_DDOT>0</MEAN_MOTION_DDOT></tleParameters></data></segment></body></omm>
<omm id="CCSDS_OMM_VERS" version="2.0">
<header><CREATION_DATE/><ORIGINATOR/></header><body><segment><metadata><OBJECT_NAME>ORBCOMM FM17</OBJECT_NAME><OBJECT_ID>1998-046A</OBJECT_ID><CENTER_NAME>EARTH</CENTER_NAME><REF_FRAME>TEME</REF_FRAME><TIME_SYSTEM>UTC</TIME_SYSTEM><MEAN_ELEMENT_THEORY>SGP4</MEAN_ELEMENT_THEORY></metadata><data><meanElements><EPOCH>2024-10-04T16:29:02.043744</EPOCH><MEAN_MOTION>14.33863179</MEAN_MOTION><ECCENTRICITY>.0001347</ECCENTRICITY><INCLINATION>44.9960</INCLINATION><RA_OF_ASC_NODE>22.4707</RA_OF_ASC_NODE><ARG_OF_PERICENTER>310.0886</ARG_OF_PERICENTER><MEAN_ANOMALY>49.9843</MEAN_ANOMALY></meanElements><tleParameters><EPHEMERIS_TYPE>0</EPHEMERIS_TYPE><CLASSIFICATION_TYPE>U</CLASSIFICATION_TYPE><NORAD_CAT_ID>25413</NORAD_CAT_ID><ELEMENT_SET_NO>999</ELEMENT_SET_NO><REV_AT_EPOCH>36665</REV_AT_EPOCH><BSTAR>.24181E-2</BSTAR><MEAN_MOTION_DOT>.6659E-4</MEAN_MOTION_DOT><MEAN_MOTION_DDOT>0</MEAN_MOTION_DDOT></tleParameters></data></segment></body></omm>
<omm id="CCSDS_OMM_VERS" version="2.0">
<header><CREATION_DATE/><ORIGINATOR/></header><body><segment><metadata><OBJECT_NAME>ORBCOMM FM18</OBJECT_NAME><OBJECT_ID>1998-046B</OBJECT_ID><CENTER_NAME>EARTH</CENTER_NAME><REF_FRAME>TEME</REF_FRAME><TIME_SYSTEM>UTC</TIME_SYSTEM><MEAN_ELEMENT_THEORY>SGP4</MEAN_ELEMENT_THEORY></metadata><data><meanElements><EPOCH>2024-10-05T03:38:36.045312</EPOCH><MEAN_MOTION>14.36876781</MEAN_MOTION><ECCENTRICITY>.0002276</ECCENTRICITY><INCLINATION>44.9927</INCLINATION><RA_OF_ASC_NODE>304.1156</RA_OF_ASC_NODE><ARG_OF_PERICENTER>46.5217</ARG_OF_PERICENTER><MEAN_ANOMALY>313.5820</MEAN_ANOMALY></meanElements><tleParameters><EPHEMERIS_TYPE>0</EPHEMERIS_TYPE><CLASSIFICATION_TYPE>U</CLASSIFICATION_TYPE><NORAD_CAT_ID>25414</NORAD_CAT_ID><ELEMENT_SET_NO>999</ELEMENT_SET_NO><REV_AT_EPOCH>36771</REV_AT_EPOCH><BSTAR>.26372E-2</BSTAR><MEAN_MOTION_DOT>.7737E-4</MEAN_MOTION_DOT><MEAN_MOTION_DDOT>0</MEAN_MOTION_DDOT></tleParameters></data></segment></body></omm>
<omm id="CCSDS_OMM_VERS" version="2.0">
<header><CREATION_DATE/><ORIGINATOR/></header><body><segment><metadata><OBJECT_NAME>ORBCOMM FM19</OBJECT_NAME><OBJECT_ID>1998-046C</OBJECT_ID><CENTER_NAME>EARTH</CENTER_NAME><REF_FRAME>TEME</REF_FRAME><TIME_SYSTEM>UTC</TIME_SYSTEM><MEAN_ELEMENT_THEORY>SGP4</MEAN_ELEMENT_THEORY></metadata><data><meanElements><EPOCH>2024-10-05T01:41:27.489984</EPOCH><MEAN_MOTION>14.36709357</MEAN_MOTION><ECCENTRICITY>.0001663</ECCENTRICITY><INCLINATION>44.9940</INCLINATION><RA_OF_ASC_NODE>306.1130</RA_OF_ASC_NODE><ARG_OF_PERICENTER>14.0437</ARG_OF_PERICENTER><MEAN_ANOMALY>11.2021</MEAN_ANOMALY></meanElements><tleParameters><EPHEMERIS_TYPE>0</EPHEMERIS_TYPE><CLASSIFICATION_TYPE>U</CLASSIFICATION_TYPE><NORAD_CAT_ID>25415</NORAD_CAT_ID><ELEMENT_SET_NO>999</ELEMENT_SET_NO><REV_AT_EPOCH>36769</REV_AT_EPOCH><BSTAR>.30997E-2</BSTAR><MEAN_MOTION_DOT>.9089E-4</MEAN_MOTION_DOT><MEAN_MOTION_DDOT>0</MEAN_MOTION_DDOT></tleParameters></data></segment></body></omm>

</ndm>
